$$SOE
2459580.500000000, A.D. 2022-Jan-01 00:00:00.0000, 2.363380785461251E+08, 1.607984960702991E+08, -6.090507519426972E+06,
2459587.500000000, A.D. 2022-Jan-08 00:00:00.0000, 2.280784171026646E+08, 1.700349783813291E+08, -1.083630433062714E+07,
2459594.500000000, A.D. 2022-Jan-15 00:00:00.0000, 2.193390393644219E+08, 1.789136878139201E+08, -1.555928489305521E+07,
2459601.500000000, A.D. 2022-Jan-22 00:00:00.0000, 2.101324044418794E+08, 1.874111151384576E+08, -2.024909351270035E+07,
2459608.500000000, A.D. 2022-Jan-29 00:00:00.0000, 2.004724495979412E+08, 1.955040938439070E+08, -2.489519054583485E+07,
2459615.500000000, A.D. 2022-Feb-05 00:00:00.0000, 1.903746115995484E+08, 2.031698960107818E+08, -2.948687972721039E+07,
2459622.500000000, A.D. 2022-Feb-12 00:00:00.0000, 1.798558432394904E+08, 2.103863321187818E+08, -3.401333886452100E+07,
2459629.500000000, A.D. 2022-Feb-19 00:00:00.0000, 1.689346228245675E+08, 2.171318566465203E+08, -3.846365359309803E+07,
2459636.500000000, A.D. 2022-Feb-26 00:00:00.0000, 1.576309544523683E+08, 2.233856781153196E+08, -4.282685409318603E+07,
2459643.500000000, A.D. 2022-Mar-05 00:00:00.0000, 1.459663584074342E+08, 2.291278722106507E+08, -4.709195475048518E+07,
2459650.500000000, A.D. 2022-Mar-12 00:00:00.0000, 1.339638511238934E+08, 2.343394970369332E+08, -5.124799664841387E+07,
2459657.500000000, A.D. 2022-Mar-19 00:00:00.0000, 1.216479140856423E+08, 2.390027095287113E+08, -5.528409270194709E+07,
2459664.500000000, A.D. 2022-Mar-26 00:00:00.0000, 1.090444510845370E+08, 2.431008818870018E+08, -5.918947518119070E+07,
2459671.500000000, A.D. 2022-Apr-02 00:00:00.0000, 9.618073342408516E+07, 2.466187167497605E+08, -6.295354531954486E+07,
2459678.500000000, A.D. 2022-Apr-09 00:00:00.0000, 8.308533300506468E+07, 2.495423597718242E+08, -6.656592465404993E+07,
2459685.500000000, A.D. 2022-Apr-16 00:00:00.0000, 6.978804348385514E+07, 2.518595088665253E+08, -7.001650764375317E+07,
2459692.500000000, A.D. 2022-Apr-23 00:00:00.0000, 5.631978826471965E+07, 2.535595197318453E+08, -7.329551487340760E+07,
2459699.500000000, A.D. 2022-Apr-30 00:00:00.0000, 4.271251368061125E+07, 2.546335039050967E+08, -7.639354630161408E+07,
2459706.500000000, A.D. 2022-May-07 00:00:00.0000, 2.899907084828636E+07, 2.550744158909034E+08, -7.930163440495533E+07,
2459713.500000000, A.D. 2022-May-14 00:00:00.0000, 1.521308826092198E+07, 2.548771309709131E+08, -8.201129649214751E+07,
2459720.500000000, A.D. 2022-May-21 00:00:00.0000, 1.388833988865234E+06, 2.540385130683793E+08, -8.451458530009964E+07,
2459727.500000000, A.D. 2022-May-28 00:00:00.0000, -1.243893187918966E+07, 2.525574704306352E+08, -8.680413725320956E+07,
2459734.500000000, A.D. 2022-Jun-04 00:00:00.0000, -2.623511295647889E+07, 2.504349976868905E+08, -8.887321779243310E+07,
2459741.500000000, A.D. 2022-Jun-11 00:00:00.0000, -3.996443878182811E+07, 2.476742033301273E+08, -9.071576316399668E+07,
2459748.500000000, A.D. 2022-Jun-18 00:00:00.0000, -5.359163182883337E+07, 2.442803218880576E+08, -9.232641808222871E+07,
2459755.500000000, A.D. 2022-Jun-25 00:00:00.0000, -6.708157745815166E+07, 2.402607102320765E+08, -9.370056873378216E+07,
2459762.500000000, A.D. 2022-Jul-02 00:00:00.0000, -8.039949476912990E+07, 2.356248276904353E+08, -9.483437066642062E+07,
2459769.500000000, A.D. 2022-Jul-09 00:00:00.0000, -9.351110599593039E+07, 2.303842001370916E+08, -9.572477118544984E+07,
2459776.500000000, A.D. 2022-Jul-16 00:00:00.0000, -1.063828025298695E+08, 2.245523694032807E+08, -9.636952585550816E+07,
2459783.500000000, A.D. 2022-Jul-23 00:00:00.0000, -1.189818078239969E+08, 2.181448286256958E+08, -9.676720869288792E+07,
2459790.500000000, A.D. 2022-Jul-30 00:00:00.0000, -1.312763352157223E+08, 2.111789409625772E+08, -9.691721621419208E+07,
2459797.500000000, A.D. 2022-Aug-06 00:00:00.0000, -1.432357353212160E+08, 2.036738433314370E+08, -9.681976559209841E+07,
2459804.500000000, A.D. 2022-Aug-13 00:00:00.0000, -1.548306322527879E+08, 1.956503391583986E+08, -9.647588671868169E+07,
2459811.500000000, A.D. 2022-Aug-20 00:00:00.0000, -1.660330488291537E+08, 1.871307810618886E+08, -9.588740827720955E+07,
2459818.500000000, A.D. 2022-Aug-27 00:00:00.0000, -1.768165195245424E+08, 1.781389443072231E+08, -9.505693817233774E+07,
2459825.500000000, A.D. 2022-Sep-03 00:00:00.0000, -1.871561899637690E+08, 1.686998925918272E+08, -9.398783871655291E+07,
2459832.500000000, A.D. 2022-Sep-10 00:00:00.0000, -1.970289021767699E+08, 1.588398379238164E+08, -9.268419701417808E+07,
2459839.500000000, A.D. 2022-Sep-17 00:00:00.0000, -2.064132651406794E+08, 1.485859963533025E+08, -9.115079103322864E+07,
2459846.500000000, A.D. 2022-Sep-24 00:00:00.0000, -2.152897103630466E+08, 1.379664412442691E+08, -8.939305190490928E+07,
2459853.500000000, A.D. 2022-Oct-01 00:00:00.0000, -2.236405323313622E+08, 1.270099557459989E+08, -8.741702304413161E+07,
2459860.500000000, A.D. 2022-Oct-08 00:00:00.0000, -2.314499137196443E+08, 1.157458865861683E+08, -8.522931668786752E+07,
2459867.500000000, A.D. 2022-Oct-15 00:00:00.0000, -2.387039367885520E+08, 1.042040018825772E+08, -8.283706828492209E+07,
2459874.500000000, A.D. 2022-Oct-22 00:00:00.0000, -2.453905838468290E+08, 9.241435266410758E+07, -8.024788928641941E+07,
2459881.500000000, A.D. 2022-Oct-29 00:00:00.0000, -2.514997251092936E+08, 8.040713674066231E+07, -7.746981936187513E+07,
2459888.500000000, A.D. 2022-Nov-05 00:00:00.0000, -2.570230927929319E+08, 6.821256872344796E+07, -7.451127854189046E+07,
2459895.500000000, A.D. 2022-Nov-12 00:00:00.0000, -2.619542444592009E+08, 5.586075833127381E+07, -7.138101949672550E+07,
2459902.500000000, A.D. 2022-Nov-19 00:00:00.0000, -2.662885174471277E+08, 4.338159672932053E+07, -6.808808042636684E+07,
2459909.500000000, A.D. 2022-Nov-26 00:00:00.0000, -2.700229752945781E+08, 3.080465104282651E+07, -6.464173903236318E+07,
2459916.500000000, A.D. 2022-Dec-03 00:00:00.0000, -2.731563471483465E+08, 1.815906740769563E+07, -6.105146794458300E+07,
2459923.500000000, A.D. 2022-Dec-10 00:00:00.0000, -2.756889612739188E+08, 5.473482793917373E+06, -5.732689190953954E+07,
2459930.500000000, A.D. 2022-Dec-17 00:00:00.0000, -2.776226737669957E+08, -7.224054346989760E+06, -5.347774699672227E+07,
2459937.500000000, A.D. 2022-Dec-24 00:00:00.0000, -2.789607934369556E+08, -1.990615472619674E+07, -4.951384203915707E+07,
2459944.500000000, A.D. 2022-Dec-31 00:00:00.0000, -2.797080035225073E+08, -3.254615020653738E+07, -4.544502248343429E+07,
2459951.500000000, A.D. 2023-Jan-07 00:00:00.0000, -2.798702810613626E+08, -4.511814642973226E+07, -4.128113668626256E+07,
2459958.500000000, A.D. 2023-Jan-14 00:00:00.0000, -2.794548167450603E+08, -5.759706592218012E+07, -3.703200449864411E+07,
2459965.500000000, A.D. 2023-Jan-21 00:00:00.0000, -2.784699366889600E+08, -6.995868525606212E+07, -3.270738836387127E+07,
2459972.500000000, A.D. 2023-Jan-28 00:00:00.0000, -2.769250231548039E+08, -8.217966691174713E+07, -2.831696727450645E+07,
2459979.500000000, A.D. 2023-Feb-04 00:00:00.0000, -2.748304350456559E+08, -9.423758329297012E+07, -2.387031328054593E+07,
2459986.500000000, A.D. 2023-Feb-11 00:00:00.0000, -2.721974304831086E+08, -1.061109335937361E+08, -1.937687033151478E+07,
2459993.500000000, A.D. 2023-Feb-18 00:00:00.0000, -2.690380919668770E+08, -1.177791548676371E+08, -1.484593542924333E+07,
2460000.500000000, A.D. 2023-Feb-25 00:00:00.0000, -2.653652542248226E+08, -1.292226279921213E+08, -1.028664203002320E+07,
2460007.500000000, A.D. 2023-Mar-04 00:00:00.0000, -2.611924349504609E+08, -1.404226790287257E+08, -5.707945590297379E+06,
2460014.500000000, A.D. 2023-Mar-11 00:00:00.0000, -2.565337686270401E+08, -1.513615764855160E+08, -1.118611133574598E+06,
2460021.500000000, A.D. 2023-Mar-18 00:00:00.0000, -2.514039435564650E+08, -1.620225250223066E+08, 3.472797284324467E+06,
2460028.500000000, A.D. 2023-Mar-25 00:00:00.0000, -2.458181420014250E+08, -1.723896561164569E+08, 8.057925323929176E+06,
2460035.500000000, A.D. 2023-Apr-01 00:00:00.0000, -2.397919830805726E+08, -1.824480157414893E+08, 1.262863545424268E+07,
2460042.500000000, A.D. 2023-Apr-08 00:00:00.0000, -2.333414690540454E+08, -1.921835482508988E+08, 1.717701268099067E+07,
2460049.500000000, A.D. 2023-Apr-15 00:00:00.0000, -2.264829373211210E+08, -2.015830779618405E+08, 2.169536916884449E+07,
2460056.500000000, A.D. 2023-Apr-22 00:00:00.0000, -2.192330162781138E+08, -2.106342918520410E+08, 2.617624747284772E+07,
2460063.500000000, A.D. 2023-Apr-29 00:00:00.0000, -2.116085822368084E+08, -2.193257214461947E+08, 3.061242243913329E+07,
2460070.500000000, A.D. 2023-May-06 00:00:00.0000, -2.036267190733378E+08, -2.276467224018758E+08, 3.499690220229524E+07,
2460077.500000000, A.D. 2023-May-13 00:00:00.0000, -1.953046814677014E+08, -2.355874529465182E+08, 3.932292840613316E+07,
2460084.500000000, A.D. 2023-May-20 00:00:00.0000, -1.866598613623635E+08, -2.431388518931422E+08, 4.358397568529949E+07,
2460091.500000000, A.D. 2023-May-27 00:00:00.0000, -1.777097573003212E+08, -2.502926164893210E+08, 4.777375048024536E+07,
2460098.500000000, A.D. 2023-Jun-03 00:00:00.0000, -1.684719464419543E+08, -2.570411802840721E+08, 5.188618927395986E+07,
2460105.500000000, A.D. 2023-Jun-10 00:00:00.0000, -1.589640590987190E+08, -2.633776912126959E+08, 5.591545633860724E+07,
2460112.500000000, A.D. 2023-Jun-17 00:00:00.0000, -1.492037555584399E+08, -2.692959901156257E+08, 5.985594106663685E+07,
2460119.500000000, A.D. 2023-Jun-24 00:00:00.0000, -1.392087047444806E+08, -2.747905897599684E+08, 6.370225494064581E+07,
2460126.500000000, A.D. 2023-Jul-01 00:00:00.0000, -1.289965643117367E+08, -2.798566536316411E+08, 6.744922825269155E+07,
2460133.500000000, A.D. 2023-Jul-08 00:00:00.0000, -1.185849636998078E+08, -2.844899737543847E+08, 7.109190684674875E+07,
2460140.500000000, A.D. 2023-Jul-15 00:00:00.0000, -1.079914912613188E+08, -2.886869504413657E+08, 7.462554881654641E+07,
$$EOE